[{"OBJECT_NAME":"NIMIQ 2","OBJECT_ID":"2002-062A","EPOCH":"2026-04-26T21:36:11.014272","MEAN_MOTION":1.00273037,"ECCENTRICITY":0.0006387,"INCLINATION":9.331,"RA_OF_ASC_NODE":57.4351,"ARG_OF_PERICENTER":334.5732,"MEAN_ANOMALY":37.7739,"EPHEMERIS_TYPE":0,"CLASSIFICATION_TYPE":"U","NORAD_CAT_ID":27632,"ELEMENT_SET_NO":999,"REV_AT_EPOCH":4367,"BSTAR":0,"MEAN_MOTION_DOT":-7.6e-7,"MEAN_MOTION_DDOT":0},{"OBJECT_NAME":"ANIK F2","OBJECT_ID":"2004-027A","EPOCH":"2026-04-27T05:01:51.511872","MEAN_MOTION":1.00271671,"ECCENTRICITY":0.00043941,"INCLINATION":3.1565,"RA_OF_ASC_NODE":80.1053,"ARG_OF_PERICENTER":333.5472,"MEAN_ANOMALY":125.8797,"EPHEMERIS_TYPE":0,"CLASSIFICATION_TYPE":"U","NORAD_CAT_ID":28378,"ELEMENT_SET_NO":999,"REV_AT_EPOCH":4075,"BSTAR":0,"MEAN_MOTION_DOT":-5.7e-7,"MEAN_MOTION_DDOT":0},{"OBJECT_NAME":"ANIK F1R","OBJECT_ID":"2005-036A","EPOCH":"2026-04-27T03:24:51.734880","MEAN_MOTION":1.00272273,"ECCENTRICITY":0.00034725,"INCLINATION":4.1843,"RA_OF_ASC_NODE":77.1946,"ARG_OF_PERICENTER":332.5153,"MEAN_ANOMALY":109.3617,"EPHEMERIS_TYPE":0,"CLASSIFICATION_TYPE":"U","NORAD_CAT_ID":28868,"ELEMENT_SET_NO":999,"REV_AT_EPOCH":4594,"BSTAR":0,"MEAN_MOTION_DOT":-8.2e-7,"MEAN_MOTION_DDOT":0},{"OBJECT_NAME":"ANIK F3","OBJECT_ID":"2007-009A","EPOCH":"2026-04-27T03:46:38.623872","MEAN_MOTION":1.00272472,"ECCENTRICITY":0.0002749,"INCLINATION":1.0672,"RA_OF_ASC_NODE":84.3926,"ARG_OF_PERICENTER":310.8476,"MEAN_ANOMALY":117.8583,"EPHEMERIS_TYPE":0,"CLASSIFICATION_TYPE":"U","NORAD_CAT_ID":31102,"ELEMENT_SET_NO":999,"REV_AT_EPOCH":4605,"BSTAR":0,"MEAN_MOTION_DOT":-1.0e-7,"MEAN_MOTION_DDOT":0},{"OBJECT_NAME":"NIMIQ 4","OBJECT_ID":"2008-044A","EPOCH":"2026-04-27T05:29:44.889792","MEAN_MOTION":1.00271192,"ECCENTRICITY":0.00022119,"INCLINATION":0.0156,"RA_OF_ASC_NODE":139.5409,"ARG_OF_PERICENTER":252.7411,"MEAN_ANOMALY":183.3927,"EPHEMERIS_TYPE":0,"CLASSIFICATION_TYPE":"U","NORAD_CAT_ID":33373,"ELEMENT_SET_NO":999,"REV_AT_EPOCH":6447,"BSTAR":0,"MEAN_MOTION_DOT":-2.3e-6,"MEAN_MOTION_DDOT":0},{"OBJECT_NAME":"TELSTAR 11N","OBJECT_ID":"2009-009A","EPOCH":"2026-04-27T01:30:38.808288","MEAN_MOTION":1.00268487,"ECCENTRICITY":0.00023664,"INCLINATION":0.0137,"RA_OF_ASC_NODE":236.2153,"ARG_OF_PERICENTER":151.4914,"MEAN_ANOMALY":172.4583,"EPHEMERIS_TYPE":0,"CLASSIFICATION_TYPE":"U","NORAD_CAT_ID":34111,"ELEMENT_SET_NO":999,"REV_AT_EPOCH":4573,"BSTAR":0,"MEAN_MOTION_DOT":0,"MEAN_MOTION_DDOT":0},{"OBJECT_NAME":"TERRESTAR-1","OBJECT_ID":"2009-035A","EPOCH":"2026-04-27T05:01:51.511872","MEAN_MOTION":1.00270077,"ECCENTRICITY":0.00028893,"INCLINATION":5.1524,"RA_OF_ASC_NODE":48.8063,"ARG_OF_PERICENTER":345.5596,"MEAN_ANOMALY":145.2822,"EPHEMERIS_TYPE":0,"CLASSIFICATION_TYPE":"U","NORAD_CAT_ID":35496,"ELEMENT_SET_NO":999,"REV_AT_EPOCH":6162,"BSTAR":0,"MEAN_MOTION_DOT":-6.3e-7,"MEAN_MOTION_DDOT":0},{"OBJECT_NAME":"NIMIQ 5","OBJECT_ID":"2009-050A","EPOCH":"2026-04-26T23:44:38.893056","MEAN_MOTION":1.0026856,"ECCENTRICITY":0.0003097,"INCLINATION":0.0225,"RA_OF_ASC_NODE":104.1145,"ARG_OF_PERICENTER":302.6404,"MEAN_ANOMALY":91.6944,"EPHEMERIS_TYPE":0,"CLASSIFICATION_TYPE":"U","NORAD_CAT_ID":35873,"ELEMENT_SET_NO":999,"REV_AT_EPOCH":6083,"BSTAR":0,"MEAN_MOTION_DOT":0,"MEAN_MOTION_DDOT":0},{"OBJECT_NAME":"SKYTERRA 1","OBJECT_ID":"2010-061A","EPOCH":"2026-04-26T21:38:33.287424","MEAN_MOTION":1.00271782,"ECCENTRICITY":0.0003152,"INCLINATION":5.0192,"RA_OF_ASC_NODE":50.8827,"ARG_OF_PERICENTER":24.4912,"MEAN_ANOMALY":2.8266,"EPHEMERIS_TYPE":0,"CLASSIFICATION_TYPE":"U","NORAD_CAT_ID":37218,"ELEMENT_SET_NO":999,"REV_AT_EPOCH":5668,"BSTAR":0,"MEAN_MOTION_DOT":-1.26e-6,"MEAN_MOTION_DDOT":0},{"OBJECT_NAME":"TELSTAR 14R","OBJECT_ID":"2011-021A","EPOCH":"2026-04-27T01:14:50.042112","MEAN_MOTION":1.0027215,"ECCENTRICITY":0.00023272,"INCLINATION":0.0212,"RA_OF_ASC_NODE":258.0608,"ARG_OF_PERICENTER":131.0793,"MEAN_ANOMALY":141.599,"EPHEMERIS_TYPE":0,"CLASSIFICATION_TYPE":"U","NORAD_CAT_ID":37602,"ELEMENT_SET_NO":999,"REV_AT_EPOCH":5532,"BSTAR":0,"MEAN_MOTION_DOT":-2.9e-6,"MEAN_MOTION_DDOT":0},{"OBJECT_NAME":"NIMIQ 6","OBJECT_ID":"2012-026A","EPOCH":"2026-04-27T04:51:38.611872","MEAN_MOTION":1.00271824,"ECCENTRICITY":0.0002569,"INCLINATION":0.0655,"RA_OF_ASC_NODE":77.0089,"ARG_OF_PERICENTER":314.196,"MEAN_ANOMALY":165.7984,"EPHEMERIS_TYPE":0,"CLASSIFICATION_TYPE":"U","NORAD_CAT_ID":38342,"ELEMENT_SET_NO":999,"REV_AT_EPOCH":4990,"BSTAR":0,"MEAN_MOTION_DOT":-1.84e-6,"MEAN_MOTION_DDOT":0},{"OBJECT_NAME":"ANIK G1","OBJECT_ID":"2013-014A","EPOCH":"2026-04-27T06:55:16.036320","MEAN_MOTION":1.00269445,"ECCENTRICITY":0.00022107,"INCLINATION":0.0242,"RA_OF_ASC_NODE":102.8968,"ARG_OF_PERICENTER":277.3086,"MEAN_ANOMALY":191.5881,"EPHEMERIS_TYPE":0,"CLASSIFICATION_TYPE":"U","NORAD_CAT_ID":39127,"ELEMENT_SET_NO":999,"REV_AT_EPOCH":4774,"BSTAR":0,"MEAN_MOTION_DOT":0,"MEAN_MOTION_DDOT":0},{"OBJECT_NAME":"TELSTAR 12V","OBJECT_ID":"2015-068A","EPOCH":"2026-04-27T05:28:38.743680","MEAN_MOTION":1.00271736,"ECCENTRICITY":0.0002483,"INCLINATION":0.0071,"RA_OF_ASC_NODE":195.1175,"ARG_OF_PERICENTER":197.6947,"MEAN_ANOMALY":249.57,"EPHEMERIS_TYPE":0,"CLASSIFICATION_TYPE":"U","NORAD_CAT_ID":41036,"ELEMENT_SET_NO":999,"REV_AT_EPOCH":3811,"BSTAR":0,"MEAN_MOTION_DOT":-1.29e-6,"MEAN_MOTION_DDOT":0},{"OBJECT_NAME":"VIASAT-2","OBJECT_ID":"2017-029A","EPOCH":"2026-04-27T04:35:38.533344","MEAN_MOTION":1.0027161,"ECCENTRICITY":2.782e-5,"INCLINATION":0.0175,"RA_OF_ASC_NODE":268.4377,"ARG_OF_PERICENTER":105.8832,"MEAN_ANOMALY":199.877,"EPHEMERIS_TYPE":0,"CLASSIFICATION_TYPE":"U","NORAD_CAT_ID":42740,"ELEMENT_SET_NO":999,"REV_AT_EPOCH":3269,"BSTAR":0,"MEAN_MOTION_DOT":-2.75e-6,"MEAN_MOTION_DDOT":0},{"OBJECT_NAME":"LEO 1 (LEO VANTAGE 1)","OBJECT_ID":"2018-004C","EPOCH":"2026-04-27T06:06:08.075232","MEAN_MOTION":14.67567999,"ECCENTRICITY":0.03501844,"INCLINATION":99.2447,"RA_OF_ASC_NODE":28.9018,"ARG_OF_PERICENTER":235.6851,"MEAN_ANOMALY":121.0748,"EPHEMERIS_TYPE":0,"CLASSIFICATION_TYPE":"U","NORAD_CAT_ID":43113,"ELEMENT_SET_NO":999,"REV_AT_EPOCH":43001,"BSTAR":0.00016294137,"MEAN_MOTION_DOT":2.271e-5,"MEAN_MOTION_DDOT":0},{"OBJECT_NAME":"TELSTAR 19V","OBJECT_ID":"2018-059A","EPOCH":"2026-04-27T04:27:38.603808","MEAN_MOTION":1.00270633,"ECCENTRICITY":0.0001747,"INCLINATION":0.0202,"RA_OF_ASC_NODE":183.274,"ARG_OF_PERICENTER":263.6152,"MEAN_ANOMALY":132.1896,"EPHEMERIS_TYPE":0,"CLASSIFICATION_TYPE":"U","NORAD_CAT_ID":43562,"ELEMENT_SET_NO":999,"REV_AT_EPOCH":2863,"BSTAR":0,"MEAN_MOTION_DOT":-2.9e-6,"MEAN_MOTION_DDOT":0},{"OBJECT_NAME":"TELSTAR 18V","OBJECT_ID":"2018-069A","EPOCH":"2026-04-27T05:26:38.695200","MEAN_MOTION":1.00271858,"ECCENTRICITY":0.00020454,"INCLINATION":0.0137,"RA_OF_ASC_NODE":266.3051,"ARG_OF_PERICENTER":119.3408,"MEAN_ANOMALY":49.2363,"EPHEMERIS_TYPE":0,"CLASSIFICATION_TYPE":"U","NORAD_CAT_ID":43611,"ELEMENT_SET_NO":999,"REV_AT_EPOCH":2812,"BSTAR":0,"MEAN_MOTION_DOT":-3.04e-6,"MEAN_MOTION_DDOT":0}]
